address_id,house_number,street,zip_code,city,state
813917053,97103,Brickson Park,25709,Huntington,WV
925891398,185,Waywood,33196,Miami,FL
769546870,3562,Ridgeway,95155,San Jose,CA
918763597,8756,Memorial,48335,Farmington,MI
621264954,913,Ridgeway,49018,Battle Creek,MI
793287203,152,Eliot,37931,Knoxville,TN
498590820,2187,Daystar,84130,Salt Lake City,UT
916993800,0,Gale,91103,Pasadena,CA
741508358,463,Mayfield,71213,Monroe,LA
646026625,581,Monica,68124,Omaha,NE
278796883,5650,Golf View,89150,Las Vegas,NV
347008447,9664,Schlimgen,45403,Dayton,OH
663128867,4,Carioca,34745,Kissimmee,FL
868248555,2,Donald,94132,San Francisco,CA
985136981,52,Sunnyside,94110,San Francisco,CA
125863569,46989,Susan,8104,Camden,NJ
523719016,8,Sage,33448,Delray Beach,FL
846221480,48,Bultman,10155,New York City,NY
644893209,53836,Rigney,49006,Kalamazoo,MI
981737993,8,Hollow Ridge,30336,Atlanta,GA
645044125,752,Crowley,88569,El Paso,TX
432426794,16191,Sunnyside,70179,New Orleans,LA
208825744,1537,Laurel,78726,Austin,TX
682271199,1,Northridge,70826,Baton Rouge,LA
614954588,632,Blue Bill Park,36134,Montgomery,AL
146016438,611,Rigney,31998,Columbus,GA
913186330,96155,Westport,30386,Atlanta,GA
450054602,1566,Redwing,75507,Texarkana,TX
839559978,6361,Sachtjen,45249,Cincinnati,OH
513923848,982,Fisk,31119,Atlanta,GA
367946147,13,Debra,48956,Lansing,MI
317481172,1075,Gulseth,25356,Charleston,WV
209034431,35090,Twin Pines,20719,Bowie,MD
446561387,77,Bashford,30905,Augusta,GA
154253034,31,Mitchell,89155,Las Vegas,NV
320000112,85,Commercial,70607,Lake Charles,LA
343272830,5272,Colorado,90505,Torrance,CA
207884107,51,5th,72231,Little Rock,AR
210078934,936,Quincy,32808,Orlando,FL
848903608,77560,Killdeer,73197,Oklahoma City,OK
156518253,87,Basil,95813,Sacramento,CA
493549887,73,Continental,89036,North Las Vegas,NV
195031302,12,Tennessee,84115,Salt Lake City,UT
480956691,1,Crownhardt,68134,Omaha,NE
672481819,397,Darwin,27415,Greensboro,NC
269355957,8695,Rieder,45426,Dayton,OH
462684687,41,Mosinee,94159,San Francisco,CA
561337472,7,Drewry,1129,Springfield,MA
195114074,1944,Mariners Cove,97240,Portland,OR
790102904,51622,Petterle,79989,El Paso,TX
151458877,2,Basil,60505,Aurora,IL
440555850,34,Sachtjen,85010,Phoenix,AZ
640601978,4,Ilene,30033,Decatur,GA
927170651,71113,Myrtle,29615,Greenville,SC
464113866,530,3rd,60567,Naperville,IL
800436489,7,Lyons,55114,Saint Paul,MN
169310926,911,Autumn Leaf,22405,Fredericksburg,VA
128640211,8690,Gulseth,71115,Shreveport,LA
293109855,793,Talisman,89105,Las Vegas,NV
481153847,19,Almo,29625,Anderson,SC
587948265,3817,Park Meadow,75265,Dallas,TX
377119678,16628,Montana,88519,El Paso,TX
767103993,61241,Harper,17105,Harrisburg,PA
280253962,4431,David,60351,Carol Stream,IL
146695595,228,Badeau,54305,Green Bay,WI
504182528,8231,Little Fleur,88574,El Paso,TX
763716583,34464,Northview,79182,Amarillo,TX
759172237,88154,Brickson Park,27264,High Point,NC
181542661,77554,Monument,80045,Aurora,CO
659452068,77,Morrow,34629,Clearwater,FL
125944919,0,5th,73167,Oklahoma City,OK
107293030,5,Welch,75372,Dallas,TX
593700231,17,Graedel,78265,San Antonio,TX
624457713,6926,Vera,10160,New York City,NY
848360295,967,Gateway,30311,Atlanta,GA
258032139,6,Debs,23260,Richmond,VA
721955880,2076,Shopko,11225,Brooklyn,NY
865619481,65884,Londonderry,32118,Daytona Beach,FL
853623164,74916,Schlimgen,48956,Lansing,MI
425675782,4,International,94164,San Francisco,CA
874339428,2177,Bellgrove,77040,Houston,TX
291631403,6451,Marcy,94975,Petaluma,CA
721008498,6722,Golf,18018,Bethlehem,PA
413589381,939,Melrose,33467,Lake Worth,FL
614567980,496,Barby,2142,Cambridge,MA
791907857,1,Knutson,61651,Peoria,IL
975635232,50490,Schurz,30386,Atlanta,GA
476348387,4722,Glendale,89714,Carson City,NV
234208769,3861,Oak Valley,64199,Kansas City,MO
432536462,48,Anzinger,15279,Pittsburgh,PA
850766769,5,Lotheville,84110,Salt Lake City,UT
177936777,5094,Dunning,77255,Houston,TX
781670880,9,3rd,33013,Hialeah,FL
801228923,417,Brickson Park,98175,Seattle,WA
109926078,5,Algoma,11388,Flushing,NY
279562207,57744,Northland,91205,Glendale,CA
747211521,15864,La Follette,45203,Cincinnati,OH
979658331,147,Mallory,77020,Houston,TX
334028001,57,Kinsman,34620,Clearwater,FL
393725887,472,Farwell,33673,Tampa,FL
383109722,23883,Claremont,72215,Little Rock,AR
245304053,8,Columbus,74184,Tulsa,OK
875521635,316,Dexter,32813,Orlando,FL
453282920,727,Forest Dale,71130,Shreveport,LA
387575164,2417,Almo,38181,Memphis,TN
795523878,63916,East,30301,Atlanta,GA
821981401,721,Knutson,38197,Memphis,TN
385232397,7,Graceland,78764,Austin,TX
873879094,93,Springview,55480,Minneapolis,MN
457608007,52407,Meadow Ridge,38104,Memphis,TN
646843344,723,Clarendon,8608,Trenton,NJ
871057643,1,Doe Crossing,46620,South Bend,IN
781849852,8,Bluejay,45414,Dayton,OH
631775980,72043,Autumn Leaf,44905,Mansfield,OH
779620511,46078,Swallow,23471,Virginia Beach,VA
793857486,4,Raven,20420,Washington,DC
862573900,78,Canary,18768,Wilkes Barre,PA
924788526,26,Marquette,33069,Pompano Beach,FL
979740549,7,Pankratz,37995,Knoxville,TN
192575651,134,Huxley,88563,El Paso,TX
674684413,85629,Hovde,33610,Tampa,FL
871957849,317,Jay,77045,Houston,TX
503355093,64937,Blaine,60663,Chicago,IL
195713724,96,Pepper Wood,83732,Boise,ID
645624181,8,Bowman,71115,Shreveport,LA
291478096,89,Londonderry,24029,Roanoke,VA
261415600,606,Fisk,88535,El Paso,TX
947052244,166,Kim,11499,Jamaica,NY
161686049,774,Luster,53220,Milwaukee,WI
112752715,74,Hauk,66629,Topeka,KS
384396847,9,Comanche,65211,Columbia,MO
239007030,126,Elmside,39210,Jackson,MS
214624386,3053,Washington,35242,Birmingham,AL
900555895,4391,Schmedeman,65810,Springfield,MO
136916657,4,Bayside,92867,Orange,CA
492350619,6697,Northland,77223,Houston,TX
990198232,347,Roth,32118,Daytona Beach,FL
364456328,8866,Knutson,84605,Provo,UT
226494929,62,Grover,77705,Beaumont,TX
962643631,12296,Gerald,45490,Dayton,OH
458088781,1118,Caliangt,32225,Jacksonville,FL
196014893,744,Cambridge,64136,Kansas City,MO
133608885,1993,Carioca,89110,Las Vegas,NV
344397388,8341,Eastwood,78721,Austin,TX
910381400,675,Twin Pines,25726,Huntington,WV
158537133,5,Claremont,15279,Pittsburgh,PA
595841556,6501,Trailsway,37931,Knoxville,TN
515268731,422,Debra,10270,New York City,NY
538075585,35,Oxford,85210,Mesa,AZ
122510656,51,Oak,66611,Topeka,KS
247772317,7891,Superior,54313,Green Bay,WI
483493108,60207,Bluestem,79105,Amarillo,TX
568661669,934,Becker,39505,Gulfport,MS
492205036,519,American,33972,Lehigh Acres,FL
157694731,58609,Sachs,33448,Delray Beach,FL
633231523,792,Caliangt,60614,Chicago,IL
805205809,776,Sauthoff,78225,San Antonio,TX
276918740,11485,Katie,214,Portsmouth,NH
325119718,7985,Dunning,77806,Bryan,TX
436740542,16311,Moulton,70165,New Orleans,LA
385468238,9614,Buell,41905,Migrate,KY
249134672,53244,Melody,16565,Erie,PA
186135495,3,Michigan,93740,Fresno,CA
245618435,9876,Gale,37220,Nashville,TN
155642214,94,Porter,10280,New York City,NY
730516796,15,Declaration,23436,Suffolk,VA
603076445,3,Golf Course,36125,Montgomery,AL
604236052,1448,Hintze,70815,Baton Rouge,LA
267025540,93,Lunder,43615,Toledo,OH
385252149,59760,Sauthoff,88546,El Paso,TX
391585340,3759,Carey,70820,Baton Rouge,LA
716193105,770,Novick,70593,Lafayette,LA
543323042,39,Carioca,89110,Las Vegas,NV
233739547,48209,Weeping Birch,1152,Springfield,MA
504332070,26,Ramsey,36114,Montgomery,AL
187562954,714,Rowland,33467,Lake Worth,FL
347903509,5709,Myrtle,43605,Toledo,OH
370601273,8,Derek,60630,Chicago,IL
488716554,57,Corscot,77075,Houston,TX
274114555,4,Talmadge,52809,Davenport,IA
882947588,450,Oak,25775,Huntington,WV
192272203,2328,Mallard,46862,Fort Wayne,IN
703992715,2273,Birchwood,20029,Washington,DC
282766257,3935,Oak Valley,63121,Saint Louis,MO
452083480,338,Butternut,85077,Phoenix,AZ
888767797,51,Kenwood,33462,Lake Worth,FL
151464154,2,Fairview,28205,Charlotte,NC
286446025,64001,Goodland,19805,Wilmington,DE
299152869,356,Bultman,87105,Albuquerque,NM
672709669,19003,Acker,24040,Roanoke,VA
774446587,4588,Kropf,20557,Washington,DC
920972886,5491,Westerfield,77025,Houston,TX
569876150,10,Russell,95194,San Jose,CA
685618381,667,Dennis,33111,Miami,FL
120745194,97700,Oak Valley,20210,Washington,DC
806031375,35,Declaration,78205,San Antonio,TX
815484502,8422,Havey,77025,Houston,TX
898123515,5,Green,10454,Bronx,NY
530257658,259,Homewood,79182,Amarillo,TX
174554178,47092,Anthes,97286,Portland,OR
187361785,828,Blaine,34985,Port Saint Lucie,FL
483105746,382,Boyd,80279,Denver,CO
549679257,170,Hudson,87180,Albuquerque,NM
275244265,4,Logan,79176,Amarillo,TX
941260188,2725,Dawn,45505,Springfield,OH
676077157,58956,Cambridge,94975,Petaluma,CA
479158921,5884,Superior,18706,Wilkes Barre,PA
603841503,11955,Tennessee,57105,Sioux Falls,SD
888200622,6,Reinke,20244,Washington,DC
360628820,794,Dexter,79176,Amarillo,TX
837759116,43,Maryland,95852,Sacramento,CA
602968993,41872,Dryden,92867,Orange,CA
799340158,24,Vernon,20231,Washington,DC
643529779,4,Ohio,3105,Manchester,NH
712777455,823,Longview,59771,Bozeman,MT
641384696,41,Jenna,33633,Tampa,FL
865292417,7,Bartelt,44505,Youngstown,OH
333014605,577,Sutteridge,80228,Denver,CO
977857184,538,Village,55551,Young America,MN
408353398,20,Grim,92186,San Diego,CA
178457749,4,Marquette,78759,Austin,TX
392414933,223,Crest Line,92105,San Diego,CA
201321411,71641,Larry,87505,Santa Fe,NM
735978149,9,Schmedeman,44905,Mansfield,OH
191480168,2999,Harper,63126,Saint Louis,MO
901373896,19733,Bowman,84115,Salt Lake City,UT
371511320,6241,Independence,92710,Irvine,CA
654581520,23,Northridge,94913,San Rafael,CA
195409213,7212,Goodland,38168,Memphis,TN
174612053,29,Hauk,58122,Fargo,ND
456903147,72,Oneill,45426,Dayton,OH
923781454,2,Florence,10203,New York City,NY
850696824,488,Fisk,33111,Miami,FL
391887757,354,Esker,79950,El Paso,TX
331571935,1,Delaware,11247,Brooklyn,NY
319737343,72,Westerfield,60619,Chicago,IL
176422540,64623,Claremont,31410,Savannah,GA
168177809,5454,Hansons,74133,Tulsa,OK
202007110,82,Sachtjen,85754,Tucson,AZ
906905364,1800,Melody,20167,Sterling,VA
803552790,726,Brown,32204,Jacksonville,FL
509612405,81197,Summerview,66225,Shawnee Mission,KS
607717607,5390,Helena,75221,Dallas,TX
808648550,572,Russell,68524,Lincoln,NE
139306288,875,Maryland,37220,Nashville,TN
914716709,9373,Derek,85260,Scottsdale,AZ
562495085,5925,Shopko,45408,Dayton,OH
725383159,64,1st,62705,Springfield,IL
652250618,8685,Westerfield,95173,San Jose,CA
696086908,99,Moulton,63126,Saint Louis,MO
661045437,6566,Rowland,10464,Bronx,NY
129932164,512,Hanover,95155,San Jose,CA
453714437,86,Bartillon,35815,Huntsville,AL
330915954,3734,Mcguire,29905,Beaufort,SC
226733836,13067,Holmberg,23228,Richmond,VA
247669298,785,Melby,55448,Minneapolis,MN
265276751,14,Onsgard,53215,Milwaukee,WI
556250136,22,Moland,32854,Orlando,FL
984072695,36268,Vernon,71115,Shreveport,LA
943213683,6783,Kensington,17126,Harrisburg,PA
554719378,8384,Lyons,14619,Rochester,NY
394969406,76,Fairfield,45243,Cincinnati,OH
859908895,3349,Rieder,1114,Springfield,MA
650639761,18108,Golden Leaf,77505,Pasadena,TX
368528341,125,Valley Edge,79410,Lubbock,TX
291374432,66,Farragut,94280,Sacramento,CA
135043860,93,Prairieview,80995,Colorado Springs,CO
348824380,4232,Autumn Leaf,70005,Metairie,LA
176721833,0,Miller,55412,Minneapolis,MN
713867002,4416,Thierer,75210,Dallas,TX
521351606,59285,Crest Line,93740,Fresno,CA
224737570,91315,Bay,20420,Washington,DC
561544211,15,Waywood,60652,Chicago,IL
448377314,76992,Grim,95298,Stockton,CA
917745601,511,Mayfield,20456,Washington,DC
784547127,22297,Di Loreto,1610,Worcester,MA
959598257,2749,Kingsford,11447,Jamaica,NY
658089878,5045,Pepper Wood,70165,New Orleans,LA
132700897,6492,Tomscot,37131,Murfreesboro,TN
187243831,702,Northland,20546,Washington,DC
952129408,70,Garrison,78721,Austin,TX
422179050,3322,Kinsman,6145,Hartford,CT
280618835,577,Stuart,89706,Carson City,NV
100614503,39,Crest Line,27415,Greensboro,NC
790619888,483,Buell,46867,Fort Wayne,IN
596126767,24563,Hayes,80291,Denver,CO
703091928,4,Northport,77493,Katy,TX
250133512,7677,Anthes,20910,Silver Spring,MD
899673308,38,Lakewood Gardens,13251,Syracuse,NY
461456895,63573,Dunning,23705,Portsmouth,VA
306012206,5,Karstens,32220,Jacksonville,FL
640736216,814,Moulton,6912,Stamford,CT
602430206,56970,Texas,23514,Norfolk,VA
342582802,3504,Armistice,98464,Tacoma,WA
155783101,147,Grasskamp,64101,Kansas City,MO
455852710,46,Nelson,80204,Denver,CO
332429652,12032,Bay,99709,Fairbanks,AK
837471525,78,Lukken,78291,San Antonio,TX
105873735,39,Luster,2119,Boston,MA
140397577,4117,Blackbird,75241,Dallas,TX
201770136,18923,Bay,20508,Washington,DC
325178163,898,Esch,33175,Miami,FL
895423404,8,Pawling,45233,Cincinnati,OH
837574866,47,Gateway,33190,Miami,FL
842328122,7,Mesta,94622,Oakland,CA
980856110,9714,Warbler,20397,Washington,DC
795006187,26,Corry,43615,Toledo,OH
364549828,6,North,20167,Sterling,VA
501433541,17,4th,29416,Charleston,SC
976568335,30,Farwell,23242,Richmond,VA
825367539,6,Mesta,91210,Glendale,CA
652030885,82584,Ilene,80126,Littleton,CO
216081994,5199,Kinsman,29215,Columbia,SC
872170532,3,Anniversary,18514,Scranton,PA
445987336,90,Manitowish,33805,Lakeland,FL
454953446,3975,Sloan,30375,Atlanta,GA
473084999,95,Bunting,44130,Cleveland,OH
925081968,3712,Elgar,22036,Fairfax,VA
181068035,9,Ridge Oak,33686,Tampa,FL
436490409,28379,Fairfield,92415,San Bernardino,CA
554325725,477,Rockefeller,73157,Oklahoma City,OK
363670949,42,North,31296,Macon,GA
854561560,85674,Almo,44125,Cleveland,OH
399421920,9230,Huxley,63126,Saint Louis,MO
300690367,93,Express,12255,Albany,NY
546607726,0,Haas,66225,Shawnee Mission,KS
507307994,687,Claremont,37240,Nashville,TN
163612084,4,Nevada,77060,Houston,TX
107966947,34563,Brickson Park,70607,Lake Charles,LA
947318408,3449,Di Loreto,84403,Ogden,UT
983040224,4630,Truax,33124,Miami,FL
538632731,32520,Goodland,54915,Appleton,WI
549804390,44,Grasskamp,14220,Buffalo,NY
894186623,345,Mayer,79105,Amarillo,TX
661886261,297,Maywood,37210,Nashville,TN
804031743,937,Kinsman,24014,Roanoke,VA
320437765,5,Schiller,19104,Philadelphia,PA
855201494,4,Ramsey,75251,Dallas,TX
580040035,87,Rieder,89510,Reno,NV
566573288,279,Fair Oaks,25709,Huntington,WV
936496324,820,Eggendart,33129,Miami,FL
780941109,42358,Pennsylvania,97075,Beaverton,OR
283319413,8,Roth,20051,Washington,DC
953347639,98080,Drewry,92505,Riverside,CA
417424808,5,Truax,87121,Albuquerque,NM
740229677,93,Sachtjen,23203,Richmond,VA
307018601,9,Vera,76205,Denton,TX
892952830,8,Center,92705,Santa Ana,CA
146906982,40,Loeprich,37131,Murfreesboro,TN
754904710,36360,Maryland,23454,Virginia Beach,VA
429776865,136,Sachtjen,77250,Houston,TX
404227378,0,Cody,92662,Newport Beach,CA
140616985,41,Stephen,94121,San Francisco,CA
367777755,38119,Center,37939,Knoxville,TN
213606732,5715,Hermina,90305,Inglewood,CA
961166058,4,Pleasure,88584,El Paso,TX
518277884,9277,Reinke,40266,Louisville,KY
438344540,142,Jenifer,61110,Rockford,IL
942152002,2936,Mccormick,59806,Missoula,MT
439119826,638,Hauk,21684,Ridgely,MD
165779758,4617,Express,36622,Mobile,AL
809277326,7134,Bayside,1654,Worcester,MA
904697516,515,Warner,92424,San Bernardino,CA
539205793,465,Garrison,49006,Kalamazoo,MI
733699544,9804,Towne,98185,Seattle,WA
904970210,8,Meadow Vale,15279,Pittsburgh,PA
718783026,4,Ramsey,78240,San Antonio,TX
503930834,7490,Fairview,6922,Stamford,CT
126897538,20,6th,2163,Boston,MA
512813788,393,Hoard,75185,Mesquite,TX
223310694,455,Mesta,45426,Dayton,OH
652349959,39207,Lukken,78230,San Antonio,TX
730761588,6294,Clove,60614,Chicago,IL
551083672,669,Merry,80299,Denver,CO
933193020,267,Clarendon,13251,Syracuse,NY
205217498,82666,East,40586,Lexington,KY
229908188,5,Sachs,80204,Denver,CO
970113813,0,Lerdahl,32505,Pensacola,FL
435164977,548,Dakota,53263,Milwaukee,WI
815984108,922,Kedzie,52245,Iowa City,IA
524943822,5,Swallow,75251,Dallas,TX
124343403,892,Algoma,46814,Fort Wayne,IN
270482772,973,Golf Course,34114,Naples,FL
524392280,667,Moulton,38308,Jackson,TN
542603884,473,Calypso,74170,Tulsa,OK
939066575,442,Union,20195,Reston,VA
343981269,23,Harbort,44118,Cleveland,OH
218806193,6,Westerfield,25389,Charleston,WV
779046163,24,Mallard,23213,Richmond,VA
990535542,33028,Gina,19172,Philadelphia,PA
550247969,6,Shoshone,96850,Honolulu,HI
167624923,91,Corben,94286,Sacramento,CA
827247165,6171,Longview,55579,Maple Plain,MN
936759928,68607,Buhler,83722,Boise,ID
139397793,4,Roth,28815,Asheville,NC
573223609,53,Anniversary,10120,New York City,NY
769969349,3929,Novick,15240,Pittsburgh,PA
137693977,197,Meadow Ridge,93005,Ventura,CA
534487560,670,Northwestern,77250,Houston,TX
194580377,246,Washington,99215,Spokane,WA
644735137,47,Michigan,27658,Raleigh,NC
489864484,1,Sage,98442,Tacoma,WA
191731996,4361,Knutson,33620,Tampa,FL
381491562,4798,Anniversary,92862,Orange,CA
373920089,635,Sunfield,33330,Fort Lauderdale,FL
326740081,667,Welch,34135,Bonita Springs,FL
709548490,817,Elmside,75231,Dallas,TX
605981831,15,Monument,98133,Seattle,WA
450507038,635,Di Loreto,37240,Nashville,TN
652593155,23,Muir,11480,Jamaica,NY
733443548,4,Victoria,61635,Peoria,IL
169415849,9828,Ramsey,87115,Albuquerque,NM
363725727,730,Lindbergh,48206,Detroit,MI
160730341,20242,Gale,25770,Huntington,WV
810056195,6136,Declaration,11054,Port Washington,NY
741456975,44,Commercial,40576,Lexington,KY
648912554,5968,Upham,89120,Las Vegas,NV
336725837,5488,Talmadge,1610,Worcester,MA
470522352,42,Old Shore,33647,Tampa,FL
173782224,2742,Ridgeway,25389,Charleston,WV
878137777,7,Shasta,92878,Corona,CA
850229183,63069,Corscot,94164,San Francisco,CA
624049927,93,Stoughton,79928,El Paso,TX
220364623,3519,Blaine,19120,Philadelphia,PA
280399755,76,Summerview,92110,San Diego,CA
854446974,40,Kenwood,17121,Harrisburg,PA
540488557,49756,Vera,31914,Columbus,GA
825123069,949,Cody,78769,Austin,TX
734074282,5912,Porter,33982,Punta Gorda,FL
489570810,282,Kingsford,10270,New York City,NY
947870784,143,Glacier Hill,70810,Baton Rouge,LA
539377870,0,Merry,44118,Cleveland,OH
156565985,8535,Mendota,30336,Atlanta,GA
222592980,3054,Miller,98158,Seattle,WA
676093460,70,Cardinal,19495,Valley Forge,PA
562112170,9,Lakewood Gardens,11436,Jamaica,NY
319705143,169,Becker,35810,Huntsville,AL
359999097,59,Fisk,75205,Dallas,TX
208481462,7987,Hoard,94177,San Francisco,CA
388122394,3197,Veith,34135,Bonita Springs,FL
113985104,1717,Commercial,88589,El Paso,TX
132965437,37,Haas,57188,Sioux Falls,SD
569586187,42453,Harbort,77240,Houston,TX
382466799,1,Scott,61709,Bloomington,IL
188058586,77,Buena Vista,79905,El Paso,TX
222605604,58,Kropf,35231,Birmingham,AL
479125718,4370,Boyd,87505,Santa Fe,NM
955252807,564,Southridge,64187,Kansas City,MO
982654965,2022,Golf Course,2114,Boston,MA
557416737,4,Parkside,85015,Phoenix,AZ
210457947,3412,Derek,2283,Boston,MA
875953683,379,Monterey,80310,Boulder,CO
721398573,32241,Gina,77050,Houston,TX
431716952,9227,Menomonie,29579,Myrtle Beach,SC
550738365,62,Mallory,6152,Hartford,CT
843026943,9007,Acker,78205,San Antonio,TX
395167836,280,Acker,40256,Louisville,KY
656851165,443,Nancy,28410,Wilmington,NC
272243384,218,Meadow Vale,6726,Waterbury,CT
431571742,97961,Talisman,33185,Miami,FL
195251217,56,Dahle,92710,Irvine,CA
822678925,92,Mallory,15250,Pittsburgh,PA
374917737,52,6th,67236,Wichita,KS
512971616,760,Thackeray,25356,Charleston,WV
940656169,863,Leroy,6905,Stamford,CT
898307575,24572,Ronald Regan,75226,Dallas,TX
484049094,8677,Dorton,30506,Gainesville,GA
376790015,78,Lillian,92825,Anaheim,CA
169462154,35,Warrior,22405,Fredericksburg,VA
899410447,6,Lotheville,87505,Santa Fe,NM
247827293,77150,Maple,20470,Washington,DC
166590004,44,Pawling,85255,Scottsdale,AZ
521363784,705,Grim,77015,Houston,TX
171120895,537,Northfield,76598,Gatesville,TX
227446125,8,Westerfield,33487,Boca Raton,FL
461985560,4,Anniversary,95833,Sacramento,CA
121948705,45858,Sauthoff,55573,Young America,MN
468253388,54028,Tennyson,45505,Springfield,OH
234443993,0,Sloan,63150,Saint Louis,MO
932880076,340,Stephen,39204,Jackson,MS
238808224,22,Rockefeller,30919,Augusta,GA
109653182,8,Aberg,37220,Nashville,TN
609783168,4038,Dwight,92186,San Diego,CA
559996625,0,Sugar,37605,Johnson City,TN
667021350,5,Clove,91186,Pasadena,CA
947604462,605,Independence,33034,Homestead,FL
601028472,790,Waubesa,32909,Palm Bay,FL
760993902,26,Summit,71137,Shreveport,LA
101422937,36,Daystar,27605,Raleigh,NC
128000414,210,Kenwood,10170,New York City,NY
281509171,62,Eastwood,39404,Hattiesburg,MS
828157347,3640,5th,68164,Omaha,NE
834335707,435,Pearson,77806,Bryan,TX
968522498,6316,Amoth,99812,Juneau,AK
546197829,9,Marquette,33742,Saint Petersburg,FL
574764187,774,Golf,37919,Knoxville,TN
425389059,65,Schlimgen,21211,Baltimore,MD
509041385,3,Schmedeman,99507,Anchorage,AK
135953305,23,Green,78410,Corpus Christi,TX
788428105,99539,Bultman,39282,Jackson,MS
583709507,7469,Bay,67220,Wichita,KS
825928829,5739,Mandrake,20231,Washington,DC
567594649,1,Iowa,43635,Toledo,OH
536909883,579,North,79928,El Paso,TX
543816474,9,Arrowood,44197,Cleveland,OH
971862992,62,La Follette,32854,Orlando,FL
107132799,641,Old Shore,35231,Birmingham,AL
166427659,88217,Paget,40546,Lexington,KY
430329938,91,Maple,66276,Shawnee Mission,KS
995960664,54387,Clarendon,37919,Knoxville,TN
923377776,25,Ruskin,77212,Houston,TX
696289202,53,Mayer,90055,Los Angeles,CA
417334373,14542,Aberg,20051,Washington,DC
613747695,3927,Arrowood,1114,Springfield,MA
335388047,2,Luster,93740,Fresno,CA
398739726,5,Goodland,90010,Los Angeles,CA
793180905,3,2nd,83757,Boise,ID
728005236,29261,Elmside,20319,Washington,DC
342132996,9,Rowland,71213,Monroe,LA
640238464,117,Hanson,19136,Philadelphia,PA
581728408,3302,Lakewood,55423,Minneapolis,MN
400066713,7018,Weeping Birch,38308,Jackson,TN
778386626,4,Lakewood Gardens,93907,Salinas,CA
325242832,614,Hanover,7544,Paterson,NJ
736328993,298,Shoshone,96805,Honolulu,HI
263079555,8031,Sheridan,68179,Omaha,NE
672476385,92,Roxbury,78205,San Antonio,TX
659767244,35452,Riverside,30351,Atlanta,GA
277825764,5208,Gale,2119,Boston,MA
558794935,71,Lakeland,98140,Seattle,WA
508604974,8,Carpenter,67236,Wichita,KS
389741886,641,Mandrake,19725,Newark,DE
388960919,9715,Vidon,45490,Dayton,OH
247142586,976,Rockefeller,88574,El Paso,TX
896030130,67,Johnson,75231,Dallas,TX
686896772,4,Vahlen,95054,Santa Clara,CA
153251982,7,Pepper Wood,33994,Fort Myers,FL
567173422,72381,Brown,6726,Waterbury,CT
981778983,971,Brentwood,37245,Nashville,TN
155677571,1534,Farmco,20046,Washington,DC
885066907,7,Packers,75372,Dallas,TX
537296369,7098,Meadow Valley,11388,Flushing,NY
666370982,44644,Chinook,79116,Amarillo,TX
850218846,55,Oriole,33325,Fort Lauderdale,FL
183067401,71024,Nobel,48232,Detroit,MI
668432911,2,Fisk,22093,Ashburn,VA
415836272,95854,Goodland,94064,Redwood City,CA
185265322,67,South,75044,Garland,TX
590393855,81,Dryden,27717,Durham,NC
641019104,4,Warner,94064,Redwood City,CA
722017257,7377,Rigney,13251,Syracuse,NY
559731853,34,Michigan,77386,Spring,TX
813033022,5,Texas,94522,Concord,CA
629944027,40,Lindbergh,14639,Rochester,NY
762694749,323,Havey,98464,Tacoma,WA
640649128,6,Pawling,64130,Kansas City,MO
750727789,20624,Crescent Oaks,80935,Colorado Springs,CO
894661232,92299,Delladonna,91505,Burbank,CA
101635492,12383,Monument,87190,Albuquerque,NM
559849779,70,Namekagon,27690,Raleigh,NC
960081647,21,Ronald Regan,94302,Palo Alto,CA
201793201,217,Schlimgen,21229,Baltimore,MD
679792733,60440,Towne,11254,Brooklyn,NY
738310921,4805,Buena Vista,91328,Northridge,CA
158610411,68,Aberg,23260,Richmond,VA
333520574,8874,Mifflin,29605,Greenville,SC
933425584,566,Bellgrove,20067,Washington,DC
520098170,343,Darwin,92176,San Diego,CA
773710679,22164,Westport,44710,Canton,OH
341271400,5968,Mcbride,27415,Greensboro,NC
376729497,61,Troy,20062,Washington,DC
397230592,3,Sullivan,33777,Largo,FL
134868312,87,Gale,78225,San Antonio,TX
593709831,2,Stang,77025,Houston,TX
869357309,6166,Manley,38188,Memphis,TN
786461872,7001,Crest Line,71213,Monroe,LA
438947719,104,Amoth,44310,Akron,OH
616696529,3793,Helena,11447,Jamaica,NY
816459770,43997,Gale,10024,New York City,NY
290322716,1,Jenna,76129,Fort Worth,TX
786281088,52,Oak,84140,Salt Lake City,UT
459296876,6,Nobel,1114,Springfield,MA
109186387,32,Lunder,33758,Clearwater,FL
975910067,14730,Lighthouse Bay,48232,Detroit,MI
145592530,91423,Little Fleur,77260,Houston,TX
850421985,6,Weeping Birch,55123,Saint Paul,MN
768675317,312,Warbler,19805,Wilmington,DE
580468602,97,Sloan,23293,Richmond,VA
623910055,5,Surrey,20508,Washington,DC
610878723,6,Heath,49444,Muskegon,MI
989463716,42093,Crest Line,75236,Dallas,TX
890676217,188,Lillian,75185,Mesquite,TX
438244168,83,Starling,80209,Denver,CO
260473627,9975,Commercial,23509,Norfolk,VA
191587468,84724,Kropf,43699,Toledo,OH
848717678,5046,Myrtle,20220,Washington,DC
172145204,88,Commercial,25356,Charleston,WV
374569645,888,Portage,38131,Memphis,TN
961070637,51,Charing Cross,70129,New Orleans,LA
537511264,357,Donald,68105,Omaha,NE
814958924,5420,Forest Dale,2203,Boston,MA
965333703,62,Stone Corner,92132,San Diego,CA
299169928,35,Spohn,10557,Mount Vernon,NY
752507386,92,Pankratz,15274,Pittsburgh,PA
763984791,843,Birchwood,60669,Chicago,IL
464837098,912,Carberry,32803,Orlando,FL
560938793,14776,Nobel,37250,Nashville,TN
444400624,197,Atwood,38181,Memphis,TN
834820157,6809,Lakeland,60208,Evanston,IL
279155964,22,Reinke,48335,Farmington,MI
450505585,77316,Thackeray,19141,Philadelphia,PA
671704376,21202,Pawling,6160,Hartford,CT
153170406,810,Ridgeview,71151,Shreveport,LA
719557934,1,Sycamore,75210,Dallas,TX
425858424,841,Sachs,1610,Worcester,MA
274175336,794,International,99205,Spokane,WA
599120519,2675,Jenifer,60505,Aurora,IL
606099421,44674,Florence,98464,Tacoma,WA
947393541,29,Goodland,33147,Miami,FL
748748927,29160,Talmadge,20057,Washington,DC
375164727,29,Dovetail,90081,Los Angeles,CA
512424652,405,Jana,94164,San Francisco,CA
945565331,1112,Dapin,27690,Raleigh,NC
994438860,812,8th,75323,Dallas,TX
984409342,627,Blackbird,71115,Shreveport,LA
689769772,76,Blaine,55188,Saint Paul,MN
515272598,403,Northport,80045,Aurora,CO
476872501,1615,Esch,83727,Boise,ID
146159891,30441,Kingsford,44185,Cleveland,OH
266083930,73008,Aberg,10099,New York City,NY
761108485,58080,Hazelcrest,2114,Boston,MA
537117491,5,Elmside,94245,Sacramento,CA
981923569,35336,Dryden,52410,Cedar Rapids,IA
517402390,79,Fair Oaks,33620,Tampa,FL
466611664,5,Troy,50320,Des Moines,IA
460153513,633,Pawling,19805,Wilmington,DE
420968023,4,Melvin,25721,Huntington,WV
578238230,9205,Johnson,30605,Athens,GA
399746163,98117,Porter,93591,Palmdale,CA
867518228,0,Memorial,90060,Los Angeles,CA
908450454,24895,Evergreen,77015,Houston,TX
650381881,75115,Ohio,58207,Grand Forks,ND
520450339,1,Ramsey,14604,Rochester,NY
407382395,765,Hanover,48604,Saginaw,MI
166921855,2337,Meadow Ridge,23220,Richmond,VA
306515933,1134,Kenwood,24009,Roanoke,VA
658076098,531,Fulton,87505,Santa Fe,NM
490395167,37294,Warbler,40287,Louisville,KY
573086617,78,Sherman,91499,Van Nuys,CA
607002105,4,Larry,90010,Los Angeles,CA
825712148,511,Burning Wood,70593,Lafayette,LA
472526879,5,Burning Wood,33884,Winter Haven,FL
577820925,2,Gale,33680,Tampa,FL
634947770,7918,Elgar,35225,Birmingham,AL
143460167,51,Corben,77075,Houston,TX
255335395,2,Ridge Oak,59771,Bozeman,MT
476740237,72212,Linden,99260,Spokane,WA
259103712,16285,Elgar,79955,El Paso,TX
777912370,9,Old Gate,45505,Springfield,OH
393456149,78,Doe Crossing,31704,Albany,GA
299437141,21,Browning,60691,Chicago,IL
360090019,5863,Trailsway,79968,El Paso,TX
458876516,64150,Springs,52405,Cedar Rapids,IA
206174235,4,Barnett,87121,Albuquerque,NM
696996073,690,Derek,56944,Washington,DC
518645230,9,Buena Vista,53277,Milwaukee,WI
334538077,9,Oakridge,70805,Baton Rouge,LA
627532069,50504,Lerdahl,94263,Sacramento,CA
449437929,167,Russell,77299,Houston,TX
134550250,0,Oak Valley,6152,Hartford,CT
149945466,35806,Towne,85383,Peoria,AZ
666554893,0,Fair Oaks,92662,Newport Beach,CA
640474630,3841,Cody,55572,Maple Plain,MN
331378823,6,Hanover,27150,Winston Salem,NC
359140886,8285,Vidon,85305,Glendale,AZ
180993915,65852,Continental,23213,Richmond,VA
397934081,0,Pearson,72916,Fort Smith,AR
922037809,12,Springs,21211,Baltimore,MD
955936882,4,Scofield,85297,Gilbert,AZ
313073858,562,Valley Edge,45223,Cincinnati,OH
719104478,9,Northridge,32128,Daytona Beach,FL
292154443,32736,Jenna,89178,Las Vegas,NV
226501977,41354,Golf View,60646,Chicago,IL
766206848,568,Pankratz,44720,Canton,OH
462776962,68105,Russell,1114,Springfield,MA
791675248,107,Ramsey,94622,Oakland,CA
612740318,1,Ridgeview,34629,Clearwater,FL
799021509,9523,Gulseth,77015,Houston,TX
253397820,98574,Manitowish,92191,San Diego,CA
445531611,4387,Forster,21265,Baltimore,MD
444409428,9387,Lerdahl,22333,Alexandria,VA
747753955,19,Moland,99812,Juneau,AK
534745382,2751,Prentice,76004,Arlington,TX
126915986,9,Mendota,71151,Shreveport,LA
683720404,36570,Fisk,50981,Des Moines,IA
361288496,2762,Hauk,90605,Whittier,CA
850589334,5766,Stuart,84115,Salt Lake City,UT
288903030,7174,Prairieview,92013,Carlsbad,CA
179369698,41,Brentwood,28220,Charlotte,NC
479313630,7549,Mitchell,20310,Washington,DC
104400363,17,Express,10060,New York City,NY
433760104,2,La Follette,64504,Saint Joseph,MO
892006666,33733,Steensland,70179,New Orleans,LA
601763339,24938,Pankratz,71151,Shreveport,LA
973767203,13,Butternut,32859,Orlando,FL
104798638,7,Dexter,45408,Dayton,OH
536727999,5324,Grasskamp,85246,Chandler,AZ
374456145,39816,Dayton,68505,Lincoln,NE
533306769,178,Delladonna,77705,Beaumont,TX
344524880,7640,Bluejay,29411,Charleston,SC
422829955,82953,Talisman,55412,Minneapolis,MN
696044934,55236,Daystar,90840,Long Beach,CA
310876638,82667,Sachtjen,92862,Orange,CA
622207481,457,Del Mar,14614,Rochester,NY
179446257,7,Hollow Ridge,20244,Washington,DC
150929660,0,Armistice,54915,Appleton,WI
619374451,88424,Orin,95138,San Jose,CA
970886176,3175,Eastlawn,11407,Jamaica,NY
131913662,1,Crescent Oaks,31422,Savannah,GA
836810702,70,Boyd,77218,Houston,TX
551894409,2665,Hoard,62705,Springfield,IL
786349280,314,Nevada,53785,Madison,WI
470677759,12,Northwestern,90050,Los Angeles,CA
194957360,3061,Waywood,85005,Phoenix,AZ
673813480,1409,Derek,10060,New York City,NY
266505387,15833,Glacier Hill,43615,Toledo,OH
421003057,87971,Fulton,78783,Austin,TX
988119935,967,Jackson,94544,Hayward,CA
956325405,677,Washington,77240,Houston,TX
323348323,6207,Crest Line,75037,Irving,TX
621054564,3,Hoard,96810,Honolulu,HI
167254705,66,La Follette,84409,Ogden,UT
953933927,26,Menomonie,14210,Buffalo,NY
245187684,60,Hallows,85725,Tucson,AZ
825481586,4,Stuart,94660,Oakland,CA
103854155,74,Sunbrook,85305,Glendale,AZ
636424308,60301,Dryden,32969,Vero Beach,FL
267600884,89,Glacier Hill,76016,Arlington,TX
753981444,18315,3rd,66642,Topeka,KS
858342780,3884,Dwight,80925,Colorado Springs,CO
946963878,40858,Emmet,22047,Falls Church,VA
163553281,2988,Continental,93407,San Luis Obispo,CA
955900895,20,Bashford,20520,Washington,DC
157396354,4785,Huxley,35254,Birmingham,AL
333739254,42731,Melby,44191,Cleveland,OH
508809097,8491,Pine View,89087,North Las Vegas,NV
516800095,90,Bunting,84145,Salt Lake City,UT
244668307,38993,Kennedy,85715,Tucson,AZ
549349164,673,Scott,73119,Oklahoma City,OK
163588647,53,Harbort,60624,Chicago,IL
130143678,37,Columbus,80525,Fort Collins,CO
816753503,87314,La Follette,64142,Kansas City,MO
671001584,22,Stephen,85754,Tucson,AZ
302474749,308,Bay,33673,Tampa,FL
232168787,6993,Derek,33913,Fort Myers,FL
411329089,7140,High Crossing,2298,Boston,MA
667084906,1077,Cody,84409,Ogden,UT
607129411,4669,Hoard,32595,Pensacola,FL
186266350,604,Hermina,80951,Colorado Springs,CO
497913969,55,Moland,79955,El Paso,TX
953740803,4,Bunker Hill,33355,Fort Lauderdale,FL
495059832,21,Dennis,29625,Anderson,SC
272852366,1416,Waxwing,65105,Jefferson City,MO
980680999,6,Red Cloud,12325,Schenectady,NY
667950493,168,High Crossing,89166,Las Vegas,NV
209571691,9714,Jana,85083,Phoenix,AZ
228052975,8,Sutherland,55805,Duluth,MN
805929037,8637,Merrick,66210,Shawnee Mission,KS
187386031,633,Spohn,89125,Las Vegas,NV
517015235,32,Dayton,35225,Birmingham,AL
218412849,6,Mariners Cove,29240,Columbia,SC
364758234,7170,Pine View,32610,Gainesville,FL
970205768,131,La Follette,19178,Philadelphia,PA
691729829,6,Valley Edge,63143,Saint Louis,MO
199991141,66177,8th,53716,Madison,WI
483238608,9480,Schlimgen,78285,San Antonio,TX
996950844,6,Cherokee,89714,Carson City,NV
661589088,75,Towne,35215,Birmingham,AL
803052030,943,Barby,77085,Houston,TX
753748112,8094,International,36605,Mobile,AL
680149688,929,Carberry,62756,Springfield,IL
469904814,5011,Delaware,70810,Baton Rouge,LA
801817102,10,Little Fleur,92424,San Bernardino,CA
392411022,5520,Cherokee,28299,Charlotte,NC
329073469,3660,Hoard,33013,Hialeah,FL
294208870,63411,Anthes,22244,Arlington,VA
925222886,5,Pankratz,33034,Homestead,FL
192052775,8,Moulton,20226,Washington,DC
131977495,23209,Briar Crest,33075,Pompano Beach,FL
801590156,52,Derek,23324,Chesapeake,VA
166914877,42,Ronald Regan,49006,Kalamazoo,MI
867578352,24,Bellgrove,23705,Portsmouth,VA
371602436,834,Duke,31704,Albany,GA
121398464,62333,Kropf,70836,Baton Rouge,LA
924257493,4,Hintze,92805,Anaheim,CA
973153657,3639,Continental,20719,Bowie,MD
617173958,6241,John Wall,32236,Jacksonville,FL
377843072,50480,Tomscot,14683,Rochester,NY
421511911,423,Ryan,79410,Lubbock,TX
486439090,886,Leroy,94302,Palo Alto,CA
161238419,4191,Melrose,52405,Cedar Rapids,IA
505683813,322,Granby,94705,Berkeley,CA
703102632,5,5th,12305,Schenectady,NY
171040427,7,Basil,53234,Milwaukee,WI
701399535,866,Dixon,77281,Houston,TX
472945634,28285,Sherman,40618,Frankfort,KY
449700823,6611,Arkansas,17622,Lancaster,PA
372064783,3892,Pearson,78291,San Antonio,TX
329960140,89291,Doe Crossing,55436,Minneapolis,MN
268307743,52973,Moulton,80940,Colorado Springs,CO
906738170,5794,Texas,35905,Gadsden,AL
107538993,793,Pearson,46867,Fort Wayne,IN
423641896,20456,Bonner,98516,Olympia,WA
714571626,3,Shoshone,6726,Waterbury,CT
203948007,6058,Bellgrove,75392,Dallas,TX
579958253,57212,Bartelt,44305,Akron,OH
977615968,7957,Claremont,80270,Denver,CO
415990231,737,Springs,49518,Grand Rapids,MI
171850322,6694,Butterfield,79188,Amarillo,TX
521510254,8502,Monument,45264,Cincinnati,OH
215353390,43511,Schmedeman,27425,Greensboro,NC
619038028,81431,Bashford,64504,Saint Joseph,MO
156677430,51,Waubesa,45233,Cincinnati,OH
153150753,935,Delaware,89135,Las Vegas,NV
203210519,65,Sommers,90025,Los Angeles,CA
214550661,8939,Talmadge,99210,Spokane,WA
914719651,26453,Lotheville,55579,Maple Plain,MN
521377919,88,Scott,66286,Shawnee Mission,KS
185385546,402,Tennessee,37605,Johnson City,TN
291047051,90,Westport,47719,Evansville,IN
877409692,3,Iowa,77346,Humble,TX
858264425,447,Buena Vista,64125,Kansas City,MO
736981497,9103,Fulton,62705,Springfield,IL
478928842,637,Marcy,92705,Santa Ana,CA
996489802,495,Toban,73190,Oklahoma City,OK
958804729,5,Mallory,80525,Fort Collins,CO
803886729,957,Summerview,37995,Knoxville,TN
893231356,742,Maryland,10150,New York City,NY
457038910,67545,Esker,37250,Nashville,TN
607850889,2,Westend,48550,Flint,MI
775447867,4506,Village,92825,Anaheim,CA
916022964,41483,Menomonie,7544,Paterson,NJ
165011435,4,Loftsgordon,87195,Albuquerque,NM
754547484,105,Ridge Oak,75246,Dallas,TX
116512112,0,Westerfield,80235,Denver,CO
387567012,73,Glacier Hill,15235,Pittsburgh,PA
378991574,9455,Summer Ridge,94177,San Francisco,CA
703001538,7,Boyd,21747,Hagerstown,MD
302304391,9,Marcy,60681,Chicago,IL
643607304,425,Fallview,10110,New York City,NY
678299237,752,Dayton,46221,Indianapolis,IN
103691571,766,Maple,93305,Bakersfield,CA
343224566,19,Cascade,75221,Dallas,TX
308712790,1872,Darwin,49544,Grand Rapids,MI
893875559,7945,Schurz,33233,Miami,FL
815687600,487,Holmberg,16510,Erie,PA
599712903,44938,Huxley,34282,Bradenton,FL
751602803,37,Acker,76105,Fort Worth,TX
318738042,243,Anniversary,85705,Tucson,AZ
229978404,99,Eastlawn,79928,El Paso,TX
965790509,3995,Donald,98424,Tacoma,WA
871367067,6,Mosinee,11480,Jamaica,NY
808206750,4,Dryden,10203,New York City,NY
505736190,934,Cardinal,33436,Boynton Beach,FL
485968833,20298,Manley,44125,Cleveland,OH
580891558,63748,Bunting,20073,Washington,DC
836637042,49611,Saint Paul,61635,Peoria,IL
906393452,8378,Grasskamp,20299,Washington,DC
912146456,27,Maywood,98411,Tacoma,WA
995812822,45,Dayton,93773,Fresno,CA
357865812,60711,Merrick,24048,Roanoke,VA
390528012,4,Crownhardt,79159,Amarillo,TX
876389143,198,Old Shore,99205,Spokane,WA
351727267,1,Heath,90805,Long Beach,CA
886421238,88,Caliangt,93111,Santa Barbara,CA
271790578,99,Macpherson,78754,Austin,TX
721339510,2,Toban,31914,Columbus,GA
912454012,4,Claremont,90020,Los Angeles,CA
418806698,896,Schmedeman,30061,Marietta,GA
213915226,30,Manley,31422,Savannah,GA
535186639,42,Bluejay,74133,Tulsa,OK
767800260,4178,Boyd,33175,Miami,FL
917105437,1786,Kingsford,30340,Atlanta,GA
484372804,6868,Barby,15230,Pittsburgh,PA
273884909,4,Mendota,79999,El Paso,TX
102015473,15145,West,11470,Jamaica,NY
944798482,17,Manitowish,32854,Orlando,FL
466271224,23449,Kenwood,22217,Arlington,VA
333283020,5,Fairview,19897,Wilmington,DE
894573437,43863,Arizona,77035,Houston,TX
691567541,4115,Spaight,46266,Indianapolis,IN
227271147,8825,Messerschmidt,94105,San Francisco,CA
758494938,95,Warrior,75392,Dallas,TX
704757304,4,Burrows,61605,Peoria,IL
730889409,99,Haas,92132,San Diego,CA
445743209,7388,Corry,33694,Tampa,FL
319573293,7637,Scoville,70616,Lake Charles,LA
329098917,5,Center,22244,Arlington,VA
365359808,839,Village,75205,Dallas,TX
259386864,99,Ridgeway,89178,Las Vegas,NV
624038495,8,Mayer,25770,Huntington,WV
781066359,4440,Westerfield,20238,Washington,DC
117917407,2038,Claremont,75216,Dallas,TX
716351054,130,Meadow Vale,10029,New York City,NY
587905656,18,Derek,20167,Sterling,VA
591218892,5,Burning Wood,89110,Las Vegas,NV
391631047,19641,Norway Maple,78778,Austin,TX
714437886,640,Fallview,24014,Roanoke,VA
660483998,1264,Laurel,45254,Cincinnati,OH
773380108,3256,Buhler,70894,Baton Rouge,LA
813743744,1246,Bonner,94522,Concord,CA
612735996,5832,La Follette,87110,Albuquerque,NM
131904310,41,Sunnyside,55487,Minneapolis,MN
996471013,83565,Ramsey,77271,Houston,TX
800451490,3932,Donald,98682,Vancouver,WA
972865106,88,Morning,2405,Brockton,MA
331950593,2,Declaration,22184,Vienna,VA
585775120,74,Artisan,85045,Phoenix,AZ
577915583,92,Fallview,99210,Spokane,WA
830048886,7272,Stoughton,32605,Gainesville,FL
571911348,409,Ruskin,33336,Fort Lauderdale,FL
159259497,8,Northview,32255,Jacksonville,FL
791130874,28575,Petterle,99205,Spokane,WA
331635240,6868,Morningstar,93399,Bakersfield,CA
579279272,6,Oak Valley,39216,Jackson,MS
589934487,469,Dovetail,33180,Miami,FL
624929675,5,Bluejay,63116,Saint Louis,MO
178948484,7801,Heath,29805,Aiken,SC
745150846,329,Talisman,98481,Tacoma,WA
954083704,9,Morningstar,8608,Trenton,NJ
984412613,2,Westport,75358,Dallas,TX
250500732,2361,New Castle,98104,Seattle,WA
947106959,511,Lyons,20575,Washington,DC
564440045,27680,Pawling,60663,Chicago,IL
128626645,6,Annamark,32309,Tallahassee,FL
999367830,8,Brickson Park,93584,Lancaster,CA
520432897,37,Prairie Rose,33742,Saint Petersburg,FL
238901888,4455,North,89510,Reno,NV
875023867,24,Valley Edge,79705,Midland,TX
439010260,3422,Butterfield,1610,Worcester,MA
490273459,858,Parkside,20010,Washington,DC
559378969,1,Rockefeller,96845,Honolulu,HI
129803093,3,Moulton,90189,Los Angeles,CA
951561472,1,Lien,66225,Shawnee Mission,KS
874987127,552,Morningstar,18018,Bethlehem,PA
150067744,8194,Arizona,75260,Dallas,TX
822180441,180,Forest,28235,Charlotte,NC
923626018,23267,Cordelia,79171,Amarillo,TX
965164703,4815,Homewood,53790,Madison,WI
969387857,3394,Lerdahl,55805,Duluth,MN
411341193,120,Lien,39534,Biloxi,MS
326663037,6,Orin,30092,Norcross,GA
437268471,95,Canary,85754,Tucson,AZ
524652161,5398,Upham,92056,Oceanside,CA
282029916,1,Huxley,17121,Harrisburg,PA
208439964,824,Grayhawk,20709,Laurel,MD
451428130,65,Maple,98506,Olympia,WA
494434585,7,Commercial,95160,San Jose,CA
980717229,75,Luster,80299,Denver,CO
296353062,7024,Independence,95818,Sacramento,CA
648073232,35716,Holy Cross,45228,Cincinnati,OH
820902901,563,Tennessee,35905,Gadsden,AL
600134936,1,Granby,78235,San Antonio,TX
882956421,98,Logan,43215,Columbus,OH
640754007,373,Blaine,85710,Tucson,AZ
392466216,5,Kings,33013,Hialeah,FL
725802120,3470,Shasta,12325,Schenectady,NY
503076410,564,Sauthoff,33673,Tampa,FL
248517806,58933,Ohio,58207,Grand Forks,ND
658418215,4,Brown,85743,Tucson,AZ
851139239,1955,Main,55573,Young America,MN
843696348,73,Helena,95865,Sacramento,CA
278424785,3,Algoma,94089,Sunnyvale,CA
646522369,579,Kings,43231,Columbus,OH
817430618,70087,Mariners Cove,16534,Erie,PA
605737728,6,Darwin,27499,Greensboro,NC
726718532,469,Cody,34615,Clearwater,FL
213491311,1,Debs,43605,Toledo,OH
636170858,8,Merchant,79950,El Paso,TX
333225283,9,Mesta,33906,Fort Myers,FL
702308396,7844,Moose,48956,Lansing,MI
889494016,812,Upham,90010,Los Angeles,CA
471754553,51,Sycamore,68110,Omaha,NE
762697253,7258,Lotheville,15220,Pittsburgh,PA
707740338,9886,Sutteridge,25326,Charleston,WV
629836396,28,Sundown,85205,Mesa,AZ
419804292,8,Forest Dale,32605,Gainesville,FL
283438548,61404,Cherokee,45249,Cincinnati,OH
542336579,762,Haas,10260,New York City,NY
452831459,611,Hermina,29424,Charleston,SC
684965566,383,Granby,2305,Brockton,MA
702654200,19091,Kropf,80310,Boulder,CO
901655676,767,Lakewood Gardens,29610,Greenville,SC
551014481,903,Sundown,92056,Oceanside,CA
518112188,46193,Longview,86305,Prescott,AZ
799559288,9,Forest Dale,91210,Glendale,CA
474293949,9779,Crowley,20260,Washington,DC
761576685,1209,Eastlawn,88579,El Paso,TX
399035347,6522,Crowley,48267,Detroit,MI
310015532,28658,Shasta,88514,El Paso,TX
941823978,1663,Thompson,90060,Los Angeles,CA
992349223,669,John Wall,1654,Worcester,MA
202747366,1651,Graceland,85246,Chandler,AZ
179364256,79,Tomscot,90030,Los Angeles,CA
873020830,4,Golf,25321,Charleston,WV
423155227,0,Thompson,76178,Fort Worth,TX
458741579,5,Helena,37220,Nashville,TN
115823820,892,Stang,19810,Wilmington,DE
897171702,980,Bowman,37931,Knoxville,TN
953401192,1,Columbus,28230,Charlotte,NC
496323877,17,Prentice,60351,Carol Stream,IL
639111553,476,Dunning,19115,Philadelphia,PA
864590611,2345,Grim,94105,San Francisco,CA
255249241,5515,Homewood,92725,Santa Ana,CA
577134592,7630,Superior,45296,Cincinnati,OH
707435380,7441,Randy,96805,Honolulu,HI
263420106,6766,American,40524,Lexington,KY
851844886,52014,Dixon,85205,Mesa,AZ
694692877,670,Summer Ridge,20078,Washington,DC
683166728,4,Barnett,85210,Mesa,AZ
775263233,8541,Victoria,70593,Lafayette,LA
457272013,6325,Drewry,60567,Naperville,IL
954105184,5629,Nelson,64144,Kansas City,MO
283830852,923,Merry,60619,Chicago,IL
632624355,76508,Pawling,6533,New Haven,CT
312920790,85,Loomis,73179,Oklahoma City,OK
968044856,13823,6th,25305,Charleston,WV
776341713,57640,High Crossing,15266,Pittsburgh,PA
738980641,9865,Dapin,45408,Dayton,OH
746525821,736,Blackbird,8619,Trenton,NJ
296302795,1108,Stone Corner,98140,Seattle,WA
698647714,9553,Dovetail,13251,Syracuse,NY
648879035,179,Oakridge,32868,Orlando,FL
776224955,1,Susan,97286,Portland,OR
617400674,9,Village Green,85725,Tucson,AZ
152929644,870,Huxley,34238,Sarasota,FL
560360338,7150,North,91411,Van Nuys,CA
437922296,44,Michigan,85705,Tucson,AZ
416373806,34,Northridge,33196,Miami,FL
540676077,8545,Menomonie,23242,Richmond,VA
471084050,507,Sheridan,68505,Lincoln,NE
355352765,75547,Lillian,10305,Staten Island,NY
644521135,14161,Bashford,33355,Fort Lauderdale,FL
702394823,6,Hanson,44185,Cleveland,OH
796931148,37082,Duke,43226,Columbus,OH
660883474,10,Loftsgordon,99210,Spokane,WA
960836317,58,Linden,76705,Waco,TX
780751712,0,6th,79916,El Paso,TX
476910714,286,Erie,44111,Cleveland,OH
508627426,10,Heffernan,32092,Saint Augustine,FL
241585788,96258,Larry,94142,San Francisco,CA
291736224,93099,Express,29905,Beaufort,SC
651604756,13,Mendota,66276,Shawnee Mission,KS
804074418,61,Bluestem,70820,Baton Rouge,LA
851656126,470,Mockingbird,99517,Anchorage,AK
371368508,6475,Dorton,46620,South Bend,IN
333829628,9,Kenwood,85311,Glendale,AZ
187373849,3,Del Mar,66215,Shawnee Mission,KS
306124177,308,Prentice,95852,Sacramento,CA
999429465,3196,Lillian,11854,Hicksville,NY
284337519,90693,Rowland,49006,Kalamazoo,MI
654130349,39737,Iowa,1654,Worcester,MA
744719834,9,Eagan,15279,Pittsburgh,PA
176131435,717,Golf View,52804,Davenport,IA
693411936,1,Texas,78732,Austin,TX
418263425,13299,Pierstorff,11205,Brooklyn,NY
942103466,288,Green Ridge,95818,Sacramento,CA
642906186,6,Sachs,94042,Mountain View,CA
997535519,739,Forest Dale,28242,Charlotte,NC
354081058,69494,Crest Line,73109,Oklahoma City,OK
822139869,30591,Northwestern,30336,Atlanta,GA
504539400,1301,Toban,49510,Grand Rapids,MI
275644287,239,Jenna,92725,Santa Ana,CA
780661087,179,Manufacturers,75379,Dallas,TX
921798434,2,Stephen,33336,Fort Lauderdale,FL
935699187,12,High Crossing,75074,Plano,TX
827896165,4378,Spohn,99812,Juneau,AK
289658397,175,Shelley,75265,Dallas,TX
352838743,7467,Oneill,60646,Chicago,IL
922485026,6,Forster,70820,Baton Rouge,LA
980419582,1175,Maple,83711,Boise,ID
576661604,2541,Thierer,10014,New York City,NY
677960971,49827,Golf View,30343,Atlanta,GA
594769702,69,Evergreen,88546,El Paso,TX
180359604,9,Nelson,93150,Santa Barbara,CA
889082054,9596,Welch,33615,Tampa,FL
463143106,3426,Homewood,75185,Mesquite,TX
973885311,9,Scofield,76121,Fort Worth,TX
406420291,62021,Colorado,89120,Las Vegas,NV
729431148,27,Springs,30905,Augusta,GA
464170040,324,Prairieview,40591,Lexington,KY
405960269,278,Oakridge,78205,San Antonio,TX
820179670,157,Dayton,8695,Trenton,NJ
797866280,98,Center,35231,Birmingham,AL
122786634,3292,Village Green,55115,Saint Paul,MN
477770512,599,Longview,60669,Chicago,IL
159937872,51902,Michigan,96825,Honolulu,HI
655300560,266,Scofield,37220,Nashville,TN
255791645,0,Tomscot,76115,Fort Worth,TX
430164712,63074,Brentwood,27157,Winston Salem,NC
963832178,62140,Sugar,93750,Fresno,CA
668697187,32065,Jana,58505,Bismarck,ND
151390186,6091,Brickson Park,47712,Evansville,IN
190448657,488,Ludington,96820,Honolulu,HI
988319639,7,Washington,66205,Shawnee Mission,KS
424086178,53,Warrior,95118,San Jose,CA
165287566,2598,Sheridan,79945,El Paso,TX
470093979,8189,Tennyson,75049,Garland,TX
236538463,38,Manitowish,88579,El Paso,TX
242184958,1293,Shoshone,46614,South Bend,IN
985049828,60,Green Ridge,55557,Young America,MN
960193675,30,1st,47134,Jeffersonville,IN
833569823,8,Mandrake,13224,Syracuse,NY
527056682,28,Holmberg,73129,Oklahoma City,OK
110287916,4100,Tennyson,78732,Austin,TX
886286950,94,Monica,44111,Cleveland,OH
719651515,9,Texas,92110,San Diego,CA
507284582,669,Union,19104,Philadelphia,PA
389679707,3577,Kedzie,95118,San Jose,CA
382210297,895,Pawling,13505,Utica,NY
201938723,85496,Fuller,14619,Rochester,NY
442148142,8,Luster,30130,Cumming,GA
716348794,69,Truax,94291,Sacramento,CA
363405700,69,Dayton,45264,Cincinnati,OH
651415684,646,Mayer,19160,Philadelphia,PA
638060694,43,Sage,55417,Minneapolis,MN
780364557,643,Crescent Oaks,98506,Olympia,WA
106883513,851,Valley Edge,19141,Philadelphia,PA
877608551,48,Northland,53263,Milwaukee,WI
444598644,4371,Orin,80305,Boulder,CO
229040587,2,Algoma,67236,Wichita,KS
674560898,1,Old Gate,50362,Des Moines,IA
892095613,0,Arizona,79410,Lubbock,TX
580422544,19,Claremont,3804,Portsmouth,NH
600231497,9329,Delaware,6905,Stamford,CT
348964673,835,Ramsey,44321,Akron,OH
295529391,44,Helena,88530,El Paso,TX
408732678,483,Rieder,91117,Pasadena,CA
339426332,56322,Cherokee,86305,Prescott,AZ
400947096,72385,Talmadge,99260,Spokane,WA
221400422,8289,Gerald,98140,Seattle,WA
843491567,19170,Katie,40205,Louisville,KY
488872070,50367,Delaware,49560,Grand Rapids,MI
711187828,4603,Fair Oaks,27404,Greensboro,NC
721903890,18,Mesta,46867,Fort Wayne,IN
276926631,0,Merrick,93778,Fresno,CA
147131233,81434,Declaration,81505,Grand Junction,CO
485692394,94,Tony,99522,Anchorage,AK
857126858,32,Blaine,47712,Evansville,IN
881935390,161,Esker,63150,Saint Louis,MO
256486378,8256,Kensington,8619,Trenton,NJ
950911193,755,Hudson,87115,Albuquerque,NM
684970097,618,Ilene,48901,Lansing,MI
116700963,2,Anhalt,88546,El Paso,TX
259522393,3,6th,30351,Atlanta,GA
523153533,33,Harper,2453,Waltham,MA
397501158,4112,Westend,36689,Mobile,AL
762613792,10,Lien,19196,Philadelphia,PA
363543972,1,Bultman,70154,New Orleans,LA
479054264,92880,Ramsey,35263,Birmingham,AL
633332067,5459,Crescent Oaks,34615,Clearwater,FL
699983029,53185,Homewood,66286,Shawnee Mission,KS
793695867,5,Heath,28278,Charlotte,NC
383192236,24,Dwight,32595,Pensacola,FL
735628709,3223,Farmco,85205,Mesa,AZ
422632261,6033,Havey,73152,Oklahoma City,OK
364337165,63831,Northwestern,78754,Austin,TX
485359860,5703,Mesta,55572,Maple Plain,MN
808305275,8,Rowland,82007,Cheyenne,WY
555254658,46,Calypso,11044,New Hyde Park,NY
867669705,0,Sundown,68164,Omaha,NE
268407061,554,Ridgeway,23293,Richmond,VA
289084925,22163,Orin,44185,Cleveland,OH
476812046,1,Macpherson,46699,South Bend,IN
519515237,9779,Vahlen,92825,Anaheim,CA
390978850,83810,Oak Valley,38104,Memphis,TN
338481294,926,Stuart,83722,Boise,ID
741061121,329,Beilfuss,22047,Falls Church,VA
655015203,262,Chive,11215,Brooklyn,NY
594950828,91,Springview,20099,Washington,DC
249944060,8,Basil,75044,Garland,TX
748136771,82,Warner,74116,Tulsa,OK
948945423,43,Kennedy,77010,Houston,TX
171486485,60,Brown,70894,Baton Rouge,LA
941031146,7,Center,92555,Moreno Valley,CA
756147855,56,Riverside,77005,Houston,TX
516946938,2818,Russell,97286,Portland,OR
533531669,19738,Barby,6120,Hartford,CT
862065338,0,Veith,98687,Vancouver,WA
395413389,50,Beilfuss,30605,Athens,GA
964281685,32,Jenifer,28235,Charlotte,NC
727501120,2347,Valley Edge,92132,San Diego,CA
860356758,46581,Annamark,20057,Washington,DC
201013965,0,Goodland,32859,Orlando,FL
282659203,1,Starling,77346,Humble,TX
557865571,78,Orin,70505,Lafayette,LA
670868069,42710,Farragut,92132,San Diego,CA
281025350,35335,Pierstorff,27658,Raleigh,NC
279250757,4382,Service,30610,Athens,GA
126291124,7157,Mariners Cove,31217,Macon,GA
827435113,92,Morning,30605,Athens,GA
220222970,66,Iowa,36119,Montgomery,AL
577246971,4809,Ridgeview,87121,Albuquerque,NM
467461524,5,Farwell,25313,Charleston,WV
213748102,2,Eggendart,33487,Boca Raton,FL
155146584,9188,Susan,55123,Saint Paul,MN
951139305,50713,Dottie,97206,Portland,OR
157559784,860,Summerview,98464,Tacoma,WA
774071651,59,Summit,91205,Glendale,CA
112936154,784,Clarendon,70005,Metairie,LA
584319727,8,Becker,95054,Santa Clara,CA
759074064,39,Washington,85383,Peoria,AZ
383107437,613,Harper,91505,Burbank,CA
619276772,5,Norway Maple,89178,Las Vegas,NV
657078064,1,Caliangt,85305,Glendale,AZ
854007947,170,Luster,80910,Colorado Springs,CO
784152983,6,Arkansas,78732,Austin,TX
347306635,9,Kedzie,79410,Lubbock,TX
114403270,51,Acker,33245,Miami,FL
390625886,3,Leroy,29203,Columbia,SC
426413316,247,Burrows,78405,Corpus Christi,TX
148022490,6064,Hooker,21282,Baltimore,MD
393886830,15,Cherokee,47812,Terre Haute,IN
999782982,7,Kings,74149,Tulsa,OK
935356198,78,Loftsgordon,20580,Washington,DC
961342844,17801,Fulton,11215,Brooklyn,NY
310859681,4,Comanche,11236,Brooklyn,NY
606782446,4,Springview,92196,San Diego,CA
224206011,4497,Elgar,77234,Houston,TX
299566733,150,Marcy,30386,Atlanta,GA
925854060,0,Hintze,47705,Evansville,IN